[
    {
        "Altitude(m)": 607897.6064631565,
        "Argument of Periapsis(deg)": 0.0,
        "Eccentricity": 0.0,
        "Inclination(deg)": 60.0,
        "Latitude(deg)": -14.292888444230698,
        "Longitude(deg)": 76.61876669338824,
        "Mean Anomaly(deg)": -16.363600000000087,
        "RAAN(deg)": 184.99999999999997,
        "Satellite Name": "Test1 835",
        "Satellite Number": 835,
        "Semi-Major Axis(m)": 6980739.136638005,
        "Time(s)": 0
    },
    {
        "Altitude(m)": 607750.8079907283,
        "Argument of Periapsis(deg)": 0.00010418945913296404,
        "Eccentricity": 0.0,
        "Inclination(deg)": 60.0,
        "Latitude(deg)": -13.758729612126766,
        "Longitude(deg)": 76.90583511374035,
        "Mean Anomaly(deg)": -15.743493854538235,
        "RAAN(deg)": 184.99957995086024,
        "Satellite Name": "Test1 835",
        "Satellite Number": 835,
        "Semi-Major Axis(m)": 6980739.136638005,
        "Time(s)": 10
    }
]